[
  {
    "id": "1",
    "name": "隱家拉麵",
    "image": "",
    "address": "赤峰店（總店）：台北市大同區南京西路25巷28號\n士林店：台北市士林區中山北路五段505巷22號\n公館店：台北市中正區羅斯福路四段52巷1之1號",
    "phone": "02-2559-5970",
    "opening_hours": "週一至週日 11:30–14:00 / 16:30–22:00（無公休）",
    "introduce": "隱家拉麵是台北知名的豚骨拉麵品牌，以濃郁的豚骨湯頭和炙燒叉燒聞名。赤峰店為總店，位於中山商圈，常見排隊人潮。店內提供多種湯頭選擇，並有豪華叉燒拼盤等人氣餐點。士林店和公館店則提供相同品質的美味拉麵，方便不同地區的顧客品嚐。",
    "map": "https://www.google.com/maps?q=台北市大同區南京西路25巷28號",
    "score": "4"
  },
  {
    "id": "2",
    "name": "池音鶏白湯ラーメン",
    "image": "",
    "address": "台北市大同區赤峰街23巷25號",
    "phone": "無提供",
    "opening_hours": "週二至週五 17:00–21:30 / 週六至週日 11:30–14:30、17:00–21:30（週一公休）",
    "introduce": "池音鶏白湯ラーメン位於台北市大同區赤峰街的巷弄中，主打濃郁的雞白湯拉麵。湯頭以雞骨熬製，口感濃厚卻不油膩，搭配舒肥雞叉燒和溏心蛋，風味絕佳。店內座位不多，常見排隊人潮，建議提前前往。",
    "map": "https://www.google.com/maps?q=台北市大同區赤峰街23巷25號",
    "score": "4"
  },
  {
    "id": "3",
    "name": "長生塩人",
    "image": "",
    "address": "台北市大安區延吉街131巷33號",
    "phone": "02-2778-3938",
    "opening_hours": "週二至週日 11:30–14:30 / 17:30–21:00（週一公休）",
    "introduce": "長生塩人專注於提供清爽的鹽味拉麵，湯頭以魚介和鹽味為基底，口感清新。店內裝潢簡約，營造出舒適的用餐環境。適合喜歡清湯系拉麵的顧客。",
    "map": "https://www.google.com/maps?q=台北市大安區延吉街131巷33號",
    "score": "4"
  },
  {
    "id": "4",
    "name": "二屋牡蠣拉麵專門店",
    "image": "",
    "address": "台北市大同區赤峰街35巷11號",
    "phone": "無提供",
    "opening_hours": "週日至週四 11:30–21:00 / 週五至週六 11:30–22:00（無公休）",
    "introduce": "二屋牡蠣拉麵專門店位於赤峰街巷弄中，主打以牡蠣為基底的濃厚湯頭拉麵。湯頭鮮甜，搭配新鮮牡蠣和叉燒，風味獨特。店內提供無限加麵服務，深受食量大的顧客喜愛。",
    "map": "https://www.google.com/maps?q=台北市大同區赤峰街35巷11號",
    "score": "4"
  },
  {
    "id": "5",
    "name": "鬼金棒",
    "image": "",
    "address": "台北市中山區中山北路一段92號",
    "phone": "02-2567-1222",
    "opening_hours": "每日 11:00–21:00（無公休）",
    "introduce": "鬼金棒來自日本，以麻辣味噌拉麵聞名。湯頭濃厚，辣度和麻度可依個人喜好調整。適合喜歡重口味和挑戰辣度的顧客。店內裝潢具有日式風格，營造出濃厚的日本氛圍。",
    "map": "https://www.google.com/maps?q=台北市中山區中山北路一段92號",
    "score": "4"
  },
  {
    "id": "6",
    "name": "一蘭拉麵",
    "image": "",
    "address": "台北市信義區松仁路97號（微風南山）",
    "phone": "02-2725-1222",
    "opening_hours": "每日 11:00–22:00（無公休）",
    "introduce": "一蘭拉麵源自日本福岡，以獨特的隔間式用餐空間和可客製化的豚骨湯頭聞名。湯頭濃郁，麵條彈牙，搭配秘製醬汁，為拉麵愛好者帶來獨特的用餐體驗。",
    "map": "https://www.google.com/maps?q=台北市信義區松仁路97號",
    "score": "4"
  },
  {
    "id": "7",
      "name": "花月嵐拉麵",
      "image": "",
      "address": "台北市北投區石牌路二段122號1樓",
      "phone": "02-2822-0228",
      "opening_hours": "週一至週日 11:00–22:00（無公休）",
      "introduce": "花月嵐拉麵源自日本，以濃厚的豚骨湯頭和大蒜風味著稱。其招牌大蒜拳骨拉麵，湯頭濃郁，搭配香氣四溢的蒜香，深受重口味愛好者喜愛。店內環境舒適，提供多樣化的拉麵選擇，滿足不同顧客的口味需求。",
      "map": "https://www.google.com/maps?q=台北市北投區石牌路二段122號1樓",
    "score": "4"
  },
    {
      "id": "8",
      "name": "麵屋一燈",
      "image": "",
      "address": "台北市中山區南京東路一段29號",
      "phone": "02-2511-6161",
      "opening_hours": "週一至週日 11:00–21:00（無公休）",
      "introduce": "麵屋一燈來自東京，以濃郁的雞白湯拉麵聞名。湯頭以雞骨熬製，口感濃厚卻不油膩，搭配特製的叉燒和溏心蛋，風味絕佳。店內環境雅致，提供高品質的用餐體驗，深受拉麵愛好者推崇。",
      "map": "https://www.google.com/maps?q=台北市中山區南京東路一段29號",
    "score": "4"
    },
    {
        "id": "9",
        "name": "茶悟拉麵",
        "image": "",
        "address": "台北市中山區中山北路一段68號",
        "phone": "無提供",
        "opening_hours": "週一公休；週二至週五 17:00–22:00；週六、日 11:30–14:00 / 17:00–22:00",
        "introduce": "茶悟拉麵於 2024 年 9 月開幕，位於台北市中山區，鄰近捷運中山站。店家主打以茶入湯的創意拉麵，湯頭結合伯爵茶、焙茶、烏龍茶等茶香，搭配濃郁的雞白湯，帶來豐富的層次感。招牌的春雪伯爵泡系雞白湯，結合伯爵茶香與奶。",
        "score": "4",
        "map": "https://www.google.com/maps?q=台北市中山區中山北路一段68號"
    },

    {
      "id": "10",
      "name": "屯京拉麵",
      "image": "",
      "address": "台北市中山區中山北路一段92號",
      "phone": "02-2567-1222",
      "opening_hours": "每日 11:00–21:00（無公休）",
      "introduce": "屯京拉麵來自東京，以濃厚的豚骨湯頭和Q彈的麵條聞名。湯頭經長時間熬煮，風味濃郁，搭配豐富的配料，滿足重口味的拉麵愛好者。店內裝潢具有日式風格，營造出濃厚的日本氛圍。",
      "map": "https://www.google.com/maps?q=台北市中山區中山北路一段92號",
    "score": "4"
    },
    {
      "id": "11",
      "name": "鷹流拉麵",
      "image": "",
      "address": "台北市大同區南京西路18巷6-3號",
      "phone": "無提供",
      "opening_hours": "週一至週日 11:30–14:00 / 17:00–21:00（無公休）",
      "introduce": "鷹流拉麵主打魚介系湯頭，使用鰹魚等多種魚類熬製，湯頭清爽不膩，風味獨特。店內環境簡約，提供多樣化的拉麵選擇，深受喜愛清湯系拉麵的顧客喜愛。",
      "map": "https://www.google.com/maps?q=台北市大同區南京西路18巷6-3號",
    "score": "4"
    },
    {
      "id": "12",
      "name": "Nagi凪拉麵",
      "image": "",
      "address": "台北市大安區大安路一段75巷5號",
      "phone": "02-2778-1899",
      "opening_hours": "週一至週四 11:30–21:00 / 週五至週日 11:30–21:30（無公休）",
      "introduce": "Nagi凪拉麵來自東京，以豚骨湯頭為基底，提供多種風味選擇。顧客可自由搭配湯頭濃淡、麵條硬度及配料，打造專屬的拉麵體驗。店內環境時尚，適合喜愛客製化拉麵的顧客。",
      "map": "https://www.google.com/maps?q=台北市大安區大安路一段75巷5號",
    "score": "4"
    },
      {
        "id": "13",
        "name": "麵屋武藏",
        "image": "",
        "address": "台北市中正區忠孝西路一段36號B1",
        "phone": "02-2371-1889",
        "opening_hours": "每日 11:00–20:30（無公休）",
        "introduce": "麵屋武藏來自東京，以豚骨湯頭為基底，搭配大塊叉燒，湯頭濃郁，味道厚重。店內裝潢具有日式風格，提供多樣化的拉麵選擇，滿足不同顧客的口味需求。",
        "map": "https://www.google.com/maps?q=台北市中正區忠孝西路一段36號B1",
    "score": "4"
      },
      {
        "id": "14",
        "name": "勝王拉麵",
        "image": "",
        "address": "台北市中山區林森北路133巷3號",
        "phone": "02-2523-6238",
        "opening_hours": "週一至週日 11:30–14:30 / 17:30–21:00（無公休）",
        "introduce": "勝王拉麵主打職人系日式風味的醬油拉麵，湯頭清澈卻富有層次，結合濃厚的醬油香氣。店內環境簡約，營造出舒適的用餐氛圍，深受拉麵愛好者喜愛。",
        "map": "https://www.google.com/maps?q=台北市中山區林森北路133巷3號",
    "score": "4"
      },
      {
        "id": "15",
        "name": "銀座篝拉麵",
        "image": "",
        "address": "台北市中山區南京東路一段29號",
        "phone": "02-2511-6161",
        "opening_hours": "週一至週日 11:00–21:00（無公休）",
        "introduce": "銀座篝拉麵源自東京，以高湯純淨濃厚的雞白湯拉麵聞名，曾獲得米其林推薦。湯頭以雞骨熬製，口感濃郁卻不油膩，搭配特製的叉燒和溏心蛋，風味絕佳。",
        "map": "https://www.google.com/maps?q=台北市中山區南京東路一段29號",
    "score": "4"
      },
      {
        "id": "16",
        "name": "豚骨家拉麵",
        "image": "",
        "address": "台北市大安區忠孝東路四段216巷27弄3號",
        "phone": "02-2771-1234",
        "opening_hours": "週一至週日 11:30–14:30 / 17:30–21:30（無公休）",
        "introduce": "豚骨家拉麵提供經典日式風味的豚骨拉麵，湯頭濃郁卻不膩，搭配Q彈的麵條和豐富的配料，深受拉麵愛好者喜愛。店內環境溫馨，適合家庭聚餐。",
        "map": "https://www.google.com/maps?q=台北市大安區忠孝東路四段216巷27弄3號",
    "score": "4"
      },
      {
        "id": "17",
        "name": "五之神製作所",
        "image": "",
        "address": "台北市信義區忠孝東路四段553巷6弄6號",
        "phone": "02-2746-6867",
        "opening_hours": "週一至週五 11:30–15:00 / 17:00–21:00；週六至週日 11:30–21:00（無公休）",
        "introduce": "五之神製作所主打濃厚蝦味湯頭的拉麵，湯頭以蝦殼熬製，鮮味十足，搭配Q彈的麵條和豐富的配料，風味獨特。店內環境簡約，深受喜愛海鮮風味拉麵的顧客喜愛。",
        "map": "https://www.google.com/maps?q=台北市信義區忠孝東路四段553巷6弄6號",
    "score": "4"
      },
      {
        "id": "18",
        "name": "山嵐拉麵",
        "image": "",
        "address": "台北市大安區大安路一段51巷29號",
        "phone": "02-2779-1221",
        "opening_hours": "週二至週日 11:30–14:30 / 17:30–21:00；週五至週六延長營業至23:00（週一公休）",
        "introduce": "山嵐拉麵來自北海道札幌，以濃厚的豚骨湯頭聞名。湯頭融合豬背脂的膠質，口感濃郁卻不膩，搭配Q彈的麵條和豐富的配料，深受拉麵愛好者喜愛。",
        "map": "https://www.google.com/maps?q=台北市大安區大安路一段51巷29號",
    "score": "4"
      },
      {
        "id": "19",
        "name": "湮鯱拉麵",
        "image": "",
        "address": "台北市大安區市民大道三段302號",
        "phone": "無提供",
        "opening_hours": "週一至週日 11:30–14:30 / 17:30–21:00（無公休）",
        "introduce": "湮鯱拉麵是由知名拉麵品牌「塩琉」所開設的分店，主打以螃蟹和鯛魚為基底的湯頭，提供清湯、濃湯和沾麵等多種選擇。招牌的濃厚螃蟹沾麵，湯頭鮮美濃郁，搭配Q彈有嚼勁的全粒粉麵體，每一口都能品嚐到濃厚的螃蟹香氣，深受海鮮愛好者喜愛。",
        "map": "https://www.google.com/maps?q=台北市大安區市民大道三段302號",
    "score": "4"
      } ,
      {
        "id": "20",
        "name": "雞吉君拉麵",
        "image": "",
        "address": "台北市內湖區環山路一段33號",
        "phone": "02-8797-8978",
        "opening_hours": "週二至週日 11:30–14:00 / 17:30–21:00（週一公休）",
        "introduce": "雞吉君拉麵位於內湖區，主打濃郁的雞白湯拉麵，湯頭以雞骨熬製，口感濃厚卻不油膩，搭配舒肥處理的雞叉燒與豬叉燒，肉質鮮嫩。店內座位以板前為主，氣氛溫馨，深受在地居民與拉麵愛好者喜愛。",
        "map": "https://www.google.com/maps?q=台北市內湖區環山路一段33號",
    "score": "4"
      },
      {
        "id": "20",
        "name": "雞吉君拉麵",
        "image": "",
        "address": "台北市內湖區環山路一段33號",
        "phone": "02-8797-8978",
        "opening_hours": "週二至週日 11:30–14:00 / 17:30–21:00（週一公休）",
        "introduce": "雞吉君拉麵位於內湖區，主打濃郁的雞白湯拉麵，湯頭以雞骨熬製，口感濃厚卻不油膩，搭配舒肥處理的雞叉燒與豬叉燒，肉質鮮嫩。店內座位以板前為主，氣氛溫馨，深受在地居民與拉麵愛好者喜愛。",
        "map": "https://www.google.com/maps?q=台北市內湖區環山路一段33號",
    "score": "4"
      }        
]
    